GORIZONT 1 [-]          
1 11158U 78118A   23094.66554377 -.00000168  00000+0  00000+0 0  9996
2 11158  11.1110 193.8099 3398647 297.3709  32.3488  1.00287608111215
GORIZONT 2 [-]          
1 11440U 79062A   23095.61685619 -.00000169  00000+0  00000+0 0  9990
2 11440   8.5990 298.4713 0001243 334.8957 223.7708  1.00304015126301
GORIZONT 3 [-]          
1 11648U 79105A   23095.63134082 -.00000353  00000+0  00000+0 0  9998
2 11648   8.7632 299.9588 0012180 217.6236  10.3174  1.00298955110767
GORIZONT 4 [-]          
1 11841U 80049A   23094.74843025 -.00000011  00000+0  00000+0 0  9998
2 11841   9.9321 305.9754 0001090  65.0825 136.0209  0.98628784221985
GORIZONT 5 [-]          
1 13092U 82020A   23095.24540166 -.00000129  00000+0  00000+0 0  9995
2 13092  10.9497 311.3467 0033343 218.1608 130.9120  0.98533121110071
GORIZONT 6 [-]          
1 13624U 82103A   23095.58036301  .00000027  00000+0  00000+0 0  9992
2 13624   9.8815 311.4314 0000893 110.7123 211.3560  1.00370963109222
GORIZONT 7 [-]          
1 14160U 83066A   23095.38477765 -.00000163  00000+0  00000+0 0  9990
2 14160  11.5907 321.0015 0009460 325.9982 231.6014  0.98349609143256
GORIZONT 8 [-]          
1 14532U 83118A   23095.31504633 -.00000160  00000+0  00000+0 0  9996
2 14532  11.7772 322.8926 0030278 154.1820 198.3961  0.98271239109014
GORIZONT 9 [-]          
1 14940U 84041A   23094.72722856  .00000070  00000+0  00000+0 0  9997
2 14940  10.9656 320.8756 0004156 212.3691 335.1551  1.00257414110210
GORIZONT 10 [-]         
1 15144U 84078A   23095.39160955  .00000092  00000+0  00000+0 0  9998
2 15144  11.0674 321.8935 0000950 111.8283  93.0195  1.00298147142854
GORIZONT 11 [-]         
1 15484U 85007A   23095.64403741 -.00000278  00000+0  00000+0 0  9996
2 15484  11.2591 323.9002 0003560 144.5564  99.1559  1.00295026140913
GORIZONT 12 [-]         
1 16769U 86044A   23095.24967274  .00000132  00000+0  00000+0 0  9995
2 16769  11.9211 329.3416 0000443 195.4339 158.6666  1.00287476135539
GORIZONT 13 [-]         
1 17083U 86090A   23094.81524153 -.00000121  00000+0  00000+0 0  9992
2 17083  13.8445 336.6288 0013474 349.1256 179.3698  0.96726727107356
GORIZONT 14 [-]         
1 17969U 87040A   23095.58869052 -.00000119  00000+0  00000+0 0  9993
2 17969  12.7193 327.9195 0030905 177.7690  19.6936  0.97659112108448
GORIZONT 15 [-]         
1 19017U 88028A   23094.84077102 -.00000093  00000+0  00000+0 0  9992
2 19017  14.1611 339.3889 0036689 160.3099  30.0317  0.97828669108049
GORIZONT 16 [-]         
1 19397U 88071A   23095.25063154  .00000126  00000+0  00000+0 0  9995
2 19397  13.0064 338.0636 0015164  68.1334 282.3952  0.99970020126541
GORIZONT 17 [-]         
1 19765U 89004A   23094.16577125 -.00000070  00000+0  00000+0 0  9997
2 19765  13.5819 341.4579 0023249 135.6098  49.9321  0.99064386123977
GORIZONT 18 [-]         
1 20107U 89052A   23095.40158272  .00000009  00000+0  00000+0 0  9999
2 20107  13.6364 342.6971 0033440 324.4163 231.0374  0.99402576122797
GORIZONT 19 [-]         
1 20263U 89081A   23095.63423128 -.00000357  00000+0  00000+0 0  9991
2 20263  13.3600 341.8527 0003247 200.8869 348.1899  1.00310413 35628
GORIZONT 20 [-]         
1 20659U 90054A   23094.72925438 -.00000050  00000+0  00000+0 0  9992
2 20659  13.8225 344.6692 0006703 169.1493  11.9534  1.00223804119967
GORIZONT 21 [-]         
1 20923U 90094A   23094.99771649 -.00000221  00000+0  00000+0 0  9992
2 20923  13.8425 345.4287 0003749 206.9309 330.5462  1.00313033118722
GORIZONT 22 [-]         
1 20953U 90102A   23095.60471481 -.00000354  00000+0  00000+0 0  9992
2 20953  13.8033 345.8031 0002814  39.1659 137.7568  1.00183564118657
GORIZONT 23 [-]         
1 21533U 91046A   23095.03938176 -.00000243  00000+0  00000+0 0  9998
2 21533  14.6045 349.9940 0003548 331.7388 212.9738  0.98910550 35127
GORIZONT 24 [-]         
1 21759U 91074A   23095.00204653 -.00000053  00000+0  00000+0 0  9991
2 21759  14.7776 351.9255 0017415 229.5772  10.3608  0.98443179113446
GORIZONT 25 [-]         
1 21922U 92017A   23094.84007590  .00000117  00000+0  00000+0 0  9993
2 21922  14.3152 351.2156 0029496  87.3716  96.3643  0.99848101113263
GORIZONT 26 [-]         
1 22041U 92043A   23094.65307336 -.00000311  00000+0  00000+0 0  9992
2 22041  14.5052 353.2543 0029889 240.5828 330.3120  0.99245846111864
GORIZONT 27 [-]         
1 22245U 92082A   23094.95604792 -.00000043  00000+0  00000+0 0  9992
2 22245  14.4199 352.7914 0012428  18.2408 164.9465  1.00210570115408
GORIZONT 28 [-]         
1 22880U 93069A   23095.62577542 -.00000115  00000+0  00000+0 0  9990
2 22880  14.5972 356.6847 0034305 136.6378  16.1448  0.99647687107488
GORIZONT 29 [-]         
1 22907U 93072A   23095.50546178 -.00000100  00000+0  00000+0 0  9996
2 22907  14.5030 356.1229 0010150 356.4159 280.6010  1.00114821107466
GORIZONT 30 [-]         
1 23108U 94030A   23094.68097209 -.00000365  00000+0  00000+0 0  9992
2 23108  14.5245 357.0206 0001299 139.5924  65.7147  1.00203521105734
GORIZONT 31 [-]         
1 23775U 96005A   23093.21282788 -.00000289  00000+0  00000+0 0  9997
2 23775  14.5011   3.3044 0018389 205.6782   4.5334  0.99892377 99350
GORIZONT 32 [-]         
1 23880U 96034A   23095.54000927 -.00000141  00000+0  00000+0 0  9994
2 23880  14.4559   3.7802 0008061   3.7570 179.9078  1.00222758 98328
GORIZONT 33 [-]         
1 26372U 00029A   23095.23088108 -.00000109  00000+0  00000+0 0  9999
2 26372  13.2812  15.1175 0003182  83.9898 164.9381  1.00288728 83704
